{"type": "FeatureCollection", "features": [ {"type": "Feature", "properties": {"norad_id": 34031, "name": "COSMOS 2251 DEB", "group": "cosmos-2251-debris", "lat": 33.99660365674961, "lon": 131.4880990299788, "alt_km": 706.1379092705347, "timestamp": "2025-12-20T18:51:32.106714+00:00", "meta": {"OBJECT_NAME": "COSMOS 2251 DEB", "OBJECT_ID": "1993-036HS", "EPOCH": "2025-12-20T15:28:32.575008", "MEAN_MOTION": 14.59768787, "ECCENTRICITY": 0.0022918, "INCLINATION": 74.0131, "RA_OF_ASC_NODE": 120.609, "ARG_OF_PERICENTER": 240.5257, "MEAN_ANOMALY": 134.5216, "EPHEMERIS_TYPE": 0, "CLASSIFICATION_TYPE": "U", "NORAD_CAT_ID": 34031, "ELEMENT_SET_NO": 999, "REV_AT_EPOCH": 88681, "BSTAR": 0.00080711076, "MEAN_MOTION_DOT": 3.84e-05, "MEAN_MOTION_DDOT": 0}, "tle": {"line1": "1 34031U 93036HS  25354.64482147  .00003840  00000+0  80711-3 0  9991", "line2": "2 34031  74.0131 120.6090 0022918 240.5257 134.5216 14.59768787886819"}}, "geometry": {"type": "Point", "coordinates": [131.4880990299788, 33.99660365674961]}}, {"type": "Feature", "properties": {"norad_id": 34035, "name": "COSMOS 2251 DEB", "group": "cosmos-2251-debris", "lat": -24.512568874335088, "lon": -33.47832895574151, "alt_km": 692.1708717546389, "timestamp": "2025-12-20T18:51:32.106724+00:00", "meta": {"OBJECT_NAME": "COSMOS 2251 DEB", "OBJECT_ID": "1993-036HW", "EPOCH": "2025-12-20T09:46:19.106976", "MEAN_MOTION": 14.52031838, "ECCENTRICITY": 0.00451439, "INCLINATION": 74.0655, "RA_OF_ASC_NODE": 334.7189, "ARG_OF_PERICENTER": 334.6649, "MEAN_ANOMALY": 181.5033, "EPHEMERIS_TYPE": 0, "CLASSIFICATION_TYPE": "U", "NORAD_CAT_ID": 34035, "ELEMENT_SET_NO": 999, "REV_AT_EPOCH": 88077, "BSTAR": 0.0011747245, "MEAN_MOTION_DOT": 4.787e-05, "MEAN_MOTION_DDOT": 0}, "tle": {"line1": "1 34035U 93036HW  25354.40716559  .00004787  00000+0  11747-2 0  9999", "line2": "2 34035  74.0655 334.7189 0045143 334.6649 181.5033 14.52031838880777"}}, "geometry": {"type": "Point", "coordinates": [-33.47832895574151, -24.512568874335088]}}, {"type": "Feature", "properties": {"norad_id": 34036, "name": "COSMOS 2251 DEB", "group": "cosmos-2251-debris", "lat": 44.847385911172985, "lon": 149.58055550363002, "alt_km": 579.705783983939, "timestamp": "2025-12-20T18:51:32.106734+00:00", "meta": {"OBJECT_NAME": "COSMOS 2251 DEB", "OBJECT_ID": "1993-036HX", "EPOCH": "2025-12-20T10:37:15.917376", "MEAN_MOTION": 14.95534204, "ECCENTRICITY": 0.00107641, "INCLINATION": 74.0199, "RA_OF_ASC_NODE": 133.7123, "ARG_OF_PERICENTER": 163.4901, "MEAN_ANOMALY": 196.6636, "EPHEMERIS_TYPE": 0, "CLASSIFICATION_TYPE": "U", "NORAD_CAT_ID": 34036, "ELEMENT_SET_NO": 999, "REV_AT_EPOCH": 88685, "BSTAR": 0.0024988387, "MEAN_MOTION_DOT": 0.00027809, "MEAN_MOTION_DDOT": 0}, "tle": {"line1": "1 34036U 93036HX  25354.44254534  .00027809  00000+0  24988-2 0  9995", "line2": "2 34036  74.0199 133.7123 0010764 163.4901 196.6636 14.95534204886859"}}, "geometry": {"type": "Point", "coordinates": [149.58055550363002, 44.847385911172985]}}, {"type": "Feature", "properties": {"norad_id": 34037, "name": "COSMOS 2251 DEB", "group": "cosmos-2251-debris", "lat": 25.35440165247495, "lon": -152.07145442870464, "alt_km": 762.2520281126717, "timestamp": "2025-12-20T18:51:32.106744+00:00", "meta": {"OBJECT_NAME": "COSMOS 2251 DEB", "OBJECT_ID": "1993-036HY", "EPOCH": "2025-12-20T13:07:51.199104", "MEAN_MOTION": 14.34683139, "ECCENTRICITY": 0.00518106, "INCLINATION": 74.0512, "RA_OF_ASC_NODE": 36.1531, "ARG_OF_PERICENTER": 83.7201, "MEAN_ANOMALY": 276.9849, "EPHEMERIS_TYPE": 0, "CLASSIFICATION_TYPE": "U", "NORAD_CAT_ID": 34037, "ELEMENT_SET_NO": 999, "REV_AT_EPOCH": 87829, "BSTAR": 0.00029459302, "MEAN_MOTION_DOT": 8.21e-06, "MEAN_MOTION_DDOT": 0}, "tle": {"line1": "1 34037U 93036HY  25354.54712036  .00000821  00000+0  29459-3 0  9997", "line2": "2 34037  74.0512  36.1531 0051810  83.7201 276.9849 14.34683139878294"}}, "geometry": {"type": "Point", "coordinates": [-152.07145442870464, 25.35440165247495]}}, {"type": "Feature", "properties": {"norad_id": 34040, "name": "COSMOS 2251 DEB", "group": "cosmos-2251-debris", "lat": -70.94615268640884, "lon": -3.8569138324798575, "alt_km": 976.694176178371, "timestamp": "2025-12-20T18:51:32.106754+00:00", "meta": {"OBJECT_NAME": "COSMOS 2251 DEB", "OBJECT_ID": "1993-036JB", "EPOCH": "2025-12-20T12:12:41.867424", "MEAN_MOTION": 13.68385497, "ECCENTRICITY": 0.03433033, "INCLINATION": 73.9557, "RA_OF_ASC_NODE": 53.0256, "ARG_OF_PERICENTER": 4.8123, "MEAN_ANOMALY": 355.6151, "EPHEMERIS_TYPE": 0, "CLASSIFICATION_TYPE": "U", "NORAD_CAT_ID": 34040, "ELEMENT_SET_NO": 999, "REV_AT_EPOCH": 83706, "BSTAR": 0.00048506037, "MEAN_MOTION_DOT": 6.03e-06, "MEAN_MOTION_DDOT": 0}, "tle": {"line1": "1 34040U 93036JB  25354.50881791  .00000603  00000+0  48506-3 0  9994", "line2": "2 34040  73.9557  53.0256 0343303   4.8123 355.6151 13.68385497837068"}}, "geometry": {"type": "Point", "coordinates": [-3.8569138324798575, -70.94615268640884]}}, {"type": "Feature", "properties": {"norad_id": 34045, "name": "COSMOS 2251 DEB", "group": "cosmos-2251-debris", "lat": -0.21591235461458674, "lon": 116.17138811286694, "alt_km": 798.5358225531281, "timestamp": "2025-12-20T18:51:32.106764+00:00", "meta": {"OBJECT_NAME": "COSMOS 2251 DEB", "OBJECT_ID": "1993-036JG", "EPOCH": "2025-12-20T06:50:38.514336", "MEAN_MOTION": 14.34072738, "ECCENTRICITY": 0.00259742, "INCLINATION": 74.0395, "RA_OF_ASC_NODE": 297.0252, "ARG_OF_PERICENTER": 18.4028, "MEAN_ANOMALY": 98.1226, "EPHEMERIS_TYPE": 0, "CLASSIFICATION_TYPE": "U", "NORAD_CAT_ID": 34045, "ELEMENT_SET_NO": 999, "REV_AT_EPOCH": 88141, "BSTAR": 7.050985e-05, "MEAN_MOTION_DOT": 1.72e-06, "MEAN_MOTION_DDOT": 0}, "tle": {"line1": "1 34045U 93036JG  25354.28516799  .00000172  00000+0  70510-4 0  9999", "line2": "2 34045  74.0395 297.0252 0025974  18.4028  98.1226 14.34072738881412"}}, "geometry": {"type": "Point", "coordinates": [116.17138811286694, -0.21591235461458674]}}, {"type": "Feature", "properties": {"norad_id": 34046, "name": "COSMOS 2251 DEB", "group": "cosmos-2251-debris", "lat": 9.938099364050045, "lon": 172.57514142420288, "alt_km": 740.666519552512, "timestamp": "2025-12-20T18:51:32.106774+00:00", "meta": {"OBJECT_NAME": "COSMOS 2251 DEB", "OBJECT_ID": "1993-036JH", "EPOCH": "2025-12-20T01:44:37.329792", "MEAN_MOTION": 14.46526924, "ECCENTRICITY": 0.00744564, "INCLINATION": 74.0389, "RA_OF_ASC_NODE": 356.7805, "ARG_OF_PERICENTER": 78.006, "MEAN_ANOMALY": 338.5486, "EPHEMERIS_TYPE": 0, "CLASSIFICATION_TYPE": "U", "NORAD_CAT_ID": 34046, "ELEMENT_SET_NO": 999, "REV_AT_EPOCH": 87932, "BSTAR": 0.00078666467, "MEAN_MOTION_DOT": 2.906e-05, "MEAN_MOTION_DDOT": 0}, "tle": {"line1": "1 34046U 93036JH  25354.07265428  .00002906  00000+0  78666-3 0  9993", "line2": "2 34046  74.0389 356.7805 0074456  78.0060 338.5486 14.46526924879320"}}, "geometry": {"type": "Point", "coordinates": [172.57514142420288, 9.938099364050045]}}, {"type": "Feature", "properties": {"norad_id": 34050, "name": "COSMOS 2251 DEB", "group": "cosmos-2251-debris", "lat": 26.14569118357039, "lon": 4.299966182149669, "alt_km": 770.9043350370921, "timestamp": "2025-12-20T18:51:32.106784+00:00", "meta": {"OBJECT_NAME": "COSMOS 2251 DEB", "OBJECT_ID": "1993-036JM", "EPOCH": "2025-12-20T06:46:31.279872", "MEAN_MOTION": 13.961967, "ECCENTRICITY": 0.02146802, "INCLINATION": 74.0882, "RA_OF_ASC_NODE": 357.1138, "ARG_OF_PERICENTER": 59.4901, "MEAN_ANOMALY": 319.4641, "EPHEMERIS_TYPE": 0, "CLASSIFICATION_TYPE": "U", "NORAD_CAT_ID": 34050, "ELEMENT_SET_NO": 999, "REV_AT_EPOCH": 85537, "BSTAR": 0.00054385312, "MEAN_MOTION_DOT": 8.86e-06, "MEAN_MOTION_DDOT": 0}, "tle": {"line1": "1 34050U 93036JM  25354.28230648  .00000886  00000+0  54385-3 0  9994", "line2": "2 34050  74.0882 357.1138 0214680  59.4901 319.4641 13.96196700855378"}}, "geometry": {"type": "Point", "coordinates": [4.299966182149669, 26.14569118357039]}}, {"type": "Feature", "properties": {"norad_id": 34053, "name": "COSMOS 2251 DEB", "group": "cosmos-2251-debris", "lat": 73.15954903331469, "lon": -57.52232814292123, "alt_km": 942.5490329488566, "timestamp": "2025-12-20T18:51:32.106794+00:00", "meta": {"OBJECT_NAME": "COSMOS 2251 DEB", "OBJECT_ID": "1993-036JQ", "EPOCH": "2025-12-20T02:27:05.709024", "MEAN_MOTION": 13.49172153, "ECCENTRICITY": 0.0422654, "INCLINATION": 73.8434, "RA_OF_ASC_NODE": 230.3074, "ARG_OF_PERICENTER": 17.6495, "MEAN_ANOMALY": 343.8793, "EPHEMERIS_TYPE": 0, "CLASSIFICATION_TYPE": "U", "NORAD_CAT_ID": 34053, "ELEMENT_SET_NO": 999, "REV_AT_EPOCH": 82783, "BSTAR": 0.00051859465, "MEAN_MOTION_DOT": 5.44e-06, "MEAN_MOTION_DDOT": 0}, "tle": {"line1": "1 34053U 93036JQ  25354.10214941  .00000544  00000+0  51859-3 0  9990", "line2": "2 34053  73.8434 230.3074 0422654  17.6495 343.8793 13.49172153827831"}}, "geometry": {"type": "Point", "coordinates": [-57.52232814292123, 73.15954903331469]}}, {"type": "Feature", "properties": {"norad_id": 34056, "name": "COSMOS 2251 DEB", "group": "cosmos-2251-debris", "lat": 18.091297653017573, "lon": -123.36738434109395, "alt_km": 769.423542544183, "timestamp": "2025-12-20T18:51:32.106804+00:00", "meta": {"OBJECT_NAME": "COSMOS 2251 DEB", "OBJECT_ID": "1993-036JT", "EPOCH": "2025-12-20T06:34:57.855072", "MEAN_MOTION": 14.20580968, "ECCENTRICITY": 0.01237601, "INCLINATION": 74.0586, "RA_OF_ASC_NODE": 62.9046, "ARG_OF_PERICENTER": 108.7592, "MEAN_ANOMALY": 316.3034, "EPHEMERIS_TYPE": 0, "CLASSIFICATION_TYPE": "U", "NORAD_CAT_ID": 34056, "ELEMENT_SET_NO": 999, "REV_AT_EPOCH": 86518, "BSTAR": 0.0004934221, "MEAN_MOTION_DOT": 1.122e-05, "MEAN_MOTION_DDOT": 0}, "tle": {"line1": "1 34056U 93036JT  25354.27428073  .00001122  00000+0  49342-3 0  9991", "line2": "2 34056  74.0586  62.9046 0123760 108.7592 316.3034 14.20580968865189"}}, "geometry": {"type": "Point", "coordinates": [-123.36738434109395, 18.091297653017573]}}]}